IRIDIUM 57 [-]          
1 25273U 98019B   23335.22119302  .00000811  00000+0  27828-3 0  9991
2 25273  86.3982  21.4294 0002146  92.9943 267.1499 14.35003072344091
IRIDIUM 63 [-]          
1 25286U 98021B   23335.03911691  .00000912  00000+0  31049-3 0  9990
2 25286  86.3958 318.4477 0002045  86.3605 273.7825 14.35509425343155
IRIDIUM 69 [-]          
1 25319U 98026A   23335.06268641  .00000902  00000+0  28211-3 0  9991
2 25319  86.3971 333.4067 0004457  86.6608 273.5100 14.39690674342103
IRIDIUM 71 [-]          
1 25320U 98026B   23334.48186065  .00001074  00000+0  33495-3 0  9998
2 25320  86.3960 328.4664 0003782 119.0288 241.1291 14.40014409342543
IRIDIUM 73 [-]          
1 25344U 98032C   23334.84279457  .00001684  00000+0  42855-3 0  9996
2 25344  86.4396 286.0420 0003002  88.4144 271.7405 14.50165488349039
IRIDIUM 82 [-]          
1 25467U 98051A   23334.62536651  .00017969  00000+0  10307-2 0  9990
2 25467  86.3963  19.7562 0141668 229.5143 129.3676 15.04234839338437
IRIDIUM 2 [-]           
1 25527U 98066A   23334.78430374  .00060076  00000+0  11943-2 0  9999
2 25527  85.5184  69.6884 0004461  22.8456 337.2998 15.46718527376314
